CTC2_L_00535001-01
1 52652U 25560YX  26070.40850694  .00000000  00000+0  00000-0 0  9998
2 52652  97.6000   0.0000 0000000   0.0000   0.0000 15.05490646    15
CTC2_L_00535001-02
1 52653U 25257RO  26070.40850694  .00000000  00000+0  00000-0 0  9992
2 52653  97.6000   0.0000 0000000   0.0000 120.0000 15.05490646    19
CTC2_L_00535001-03
1 52654U 25488ZW  26070.40850694  .00000000  00000+0  00000-0 0  9999
2 52654  97.6000   0.0000 0000000   0.0000 240.0000 15.05490646    13
CTC2_L_00535002-01
1 52655U 22998QH  26070.40850694  .00000000  00000+0  00000-0 0  9993
2 52655  97.6000  12.0000 0000000   0.0000  16.0000 15.05490646    18
CTC2_L_00535002-02
1 52656U 26326OP  26070.40850694  .00000000  00000+0  00000-0 0  9993
2 52656  97.6000  12.0000 0000000   0.0000 136.0000 15.05490646    12
CTC2_L_00535002-03
1 52657U 24047IU  26070.40850694  .00000000  00000+0  00000-0 0  9992
2 52657  97.6000  12.0000 0000000   0.0000 256.0000 15.05490646    16
CTC2_L_00535003-01
1 52658U 23785FC  26070.40850694  .00000000  00000+0  00000-0 0  9991
2 52658  97.6000  24.0000 0000000   0.0000  32.0000 15.05490646    12
CTC2_L_00535003-02
1 52659U 23495UQ  26070.40850694  .00000000  00000+0  00000-0 0  9990
2 52659  97.6000  24.0000 0000000   0.0000 152.0000 15.05490646    16
CTC2_L_00535003-03
1 52660U 22605DA  26070.40850694  .00000000  00000+0  00000-0 0  9994
2 52660  97.6000  24.0000 0000000   0.0000 272.0000 15.05490646    11
CTC2_L_00535004-01
1 52661U 25860HG  26070.40850694  .00000000  00000+0  00000-0 0  9991
2 52661  97.6000  36.0000 0000000   0.0000  48.0000 15.05490646    16
CTC2_L_00535004-02
1 52662U 24336SI  26070.40850694  .00000000  00000+0  00000-0 0  9999
2 52662  97.6000  36.0000 0000000   0.0000 168.0000 15.05490646    10
CTC2_L_00535004-03
1 52663U 22917IM  26070.40850694  .00000000  00000+0  00000-0 0  9993
2 52663  97.6000  36.0000 0000000   0.0000 288.0000 15.05490646    14
CTC2_L_00535005-01
1 52664U 22775JC  26070.40850694  .00000000  00000+0  00000-0 0  9996
2 52664  97.6000  48.0000 0000000   0.0000  64.0000 15.05490646    10
CTC2_L_00535005-02
1 52665U 24162SE  26070.40850694  .00000000  00000+0  00000-0 0  9999
2 52665  97.6000  48.0000 0000000   0.0000 184.0000 15.05490646    14
CTC2_L_00535005-03
1 52666U 24283NZ  26070.40850694  .00000000  00000+0  00000-0 0  9994
2 52666  97.6000  48.0000 0000000   0.0000 304.0000 15.05490646    19
CTC2_L_00535006-01
1 52667U 26015FY  26070.40850694  .00000000  00000+0  00000-0 0  9990
2 52667  97.6000  60.0000 0000000   0.0000  80.0000 15.05490646    15
CTC2_L_00535006-02
1 52668U 24723HX  26070.40850694  .00000000  00000+0  00000-0 0  9995
2 52668  97.6000  60.0000 0000000   0.0000 200.0000 15.05490646    10
CTC2_L_00535006-03
1 52669U 23009RB  26070.40850694  .00000000  00000+0  00000-0 0  9992
2 52669  97.6000  60.0000 0000000   0.0000 320.0000 15.05490646    14
CTC2_L_00535007-01
1 52670U 24797EV  26070.40850694  .00000000  00000+0  00000-0 0  9999
2 52670  97.6000  72.0000 0000000   0.0000  96.0000 15.05490646    19
CTC2_L_00535007-02
1 52671U 23203ST  26070.40850694  .00000000  00000+0  00000-0 0  9991
2 52671  97.6000  72.0000 0000000   0.0000 216.0000 15.05490646    14
CTC2_L_00535007-03
1 52672U 25835FX  26070.40850694  .00000000  00000+0  00000-0 0  9995
2 52672  97.6000  72.0000 0000000   0.0000 336.0000 15.05490646    18
CTC2_L_00535008-01
1 52673U 24268F   26070.40850694  .00000000  00000+0  00000-0 0  9995
2 52673  97.6000  84.0000 0000000   0.0000 112.0000 15.05490646    14
CTC2_L_00535008-02
1 52674U 22655GL  26070.40850694  .00000000  00000+0  00000-0 0  9994
2 52674  97.6000  84.0000 0000000   0.0000 232.0000 15.05490646    18
CTC2_L_00535008-03
1 52675U 24594RG  26070.40850694  .00000000  00000+0  00000-0 0  9999
2 52675  97.6000  84.0000 0000000   0.0000 352.0000 15.05490646    12
CTC2_L_00535009-01
1 52676U 26195GY  26070.40850694  .00000000  00000+0  00000-0 0  9999
2 52676  97.6000  96.0000 0000000   0.0000 128.0000 15.05490646    17
CTC2_L_00535009-02
1 52677U 22657ZZ  26070.40850694  .00000000  00000+0  00000-0 0  9999
2 52677  97.6000  96.0000 0000000   0.0000 248.0000 15.05490646    11
CTC2_L_00535009-03
1 52678U 23664EP  26070.40850694  .00000000  00000+0  00000-0 0  9999
2 52678  97.6000  96.0000 0000000   0.0000   8.0000 15.05490646    16
CTC2_L_00535010-01
1 52679U 23665LE  26070.40850694  .00000000  00000+0  00000-0 0  9991
2 52679  97.6000 108.0000 0000000   0.0000 144.0000 15.05490646    12
CTC2_L_00535010-02
1 52680U 26003LN  26070.40850694  .00000000  00000+0  00000-0 0  9992
2 52680  97.6000 108.0000 0000000   0.0000 264.0000 15.05490646    17
CTC2_L_00535010-03
1 52681U 25761AC  26070.40850694  .00000000  00000+0  00000-0 0  9993
2 52681  97.6000 108.0000 0000000   0.0000  24.0000 15.05490646    12
CTC2_L_00535011-01
1 52682U 24963KB  26070.40850694  .00000000  00000+0  00000-0 0  9997
2 52682  97.6000 120.0000 0000000   0.0000 160.0000 15.05490646    18
CTC2_L_00535011-02
1 52683U 23888FK  26070.40850694  .00000000  00000+0  00000-0 0  9993
2 52683  97.6000 120.0000 0000000   0.0000 280.0000 15.05490646    12
CTC2_L_00535011-03
1 52684U 22376IE  26070.40850694  .00000000  00000+0  00000-0 0  9995
2 52684  97.6000 120.0000 0000000   0.0000  40.0000 15.05490646    17
CTC2_L_00535012-01
1 52685U 22491QF  26070.40850694  .00000000  00000+0  00000-0 0  9994
2 52685  97.6000 132.0000 0000000   0.0000 176.0000 15.05490646    11
CTC2_L_00535012-02
1 52686U 24792UM  26070.40850694  .00000000  00000+0  00000-0 0  9991
2 52686  97.6000 132.0000 0000000   0.0000 296.0000 15.05490646    15
CTC2_L_00535012-03
1 52687U 25143SB  26070.40850694  .00000000  00000+0  00000-0 0  9993
2 52687  97.6000 132.0000 0000000   0.0000  56.0000 15.05490646    10
CTC2_L_00535013-01
1 52688U 24140TY  26070.40850694  .00000000  00000+0  00000-0 0  9990
2 52688  97.6000 144.0000 0000000   0.0000 192.0000 15.05490646    15
CTC2_L_00535013-02
1 52689U 25382LU  26070.40850694  .00000000  00000+0  00000-0 0  9990
2 52689  97.6000 144.0000 0000000   0.0000 312.0000 15.05490646    10
CTC2_L_00535013-03
1 52690U 23810UN  26070.40850694  .00000000  00000+0  00000-0 0  9996
2 52690  97.6000 144.0000 0000000   0.0000  72.0000 15.05490646    15
CTC2_L_00535014-01
1 52691U 23443PO  26070.40850694  .00000000  00000+0  00000-0 0  9999
2 52691  97.6000 156.0000 0000000   0.0000 208.0000 15.05490646    10
CTC2_L_00535014-02
1 52692U 22368PQ  26070.40850694  .00000000  00000+0  00000-0 0  9995
2 52692  97.6000 156.0000 0000000   0.0000 328.0000 15.05490646    14
CTC2_L_00535014-03
1 52693U 25306TZ  26070.40850694  .00000000  00000+0  00000-0 0  9991
2 52693  97.6000 156.0000 0000000   0.0000  88.0000 15.05490646    18
CTC2_L_00535015-01
1 52694U 23055HA  26070.40850694  .00000000  00000+0  00000-0 0  9991
2 52694  97.6000 168.0000 0000000   0.0000 224.0000 15.05490646    14
CTC2_L_00535015-02
1 52695U 25114TL  26070.40850694  .00000000  00000+0  00000-0 0  9990
2 52695  97.6000 168.0000 0000000   0.0000 344.0000 15.05490646    18
CTC2_L_00535015-03
1 52696U 23688LP  26070.40850694  .00000000  00000+0  00000-0 0  9995
2 52696  97.6000 168.0000 0000000   0.0000 104.0000 15.05490646    13
CTC2_L_00535016-01
1 52697U 24007EG  26070.40850694  .00000000  00000+0  00000-0 0  9992
2 52697  97.6000 180.0000 0000000   0.0000 240.0000 15.05490646    19
CTC2_L_00535016-02
1 52698U 25413EF  26070.40850694  .00000000  00000+0  00000-0 0  9995
2 52698  97.6000 180.0000 0000000   0.0000   0.0000 15.05490646    14
CTC2_L_00535016-03
1 52699U 22823ZW  26070.40850694  .00000000  00000+0  00000-0 0  9998
2 52699  97.6000 180.0000 0000000   0.0000 120.0000 15.05490646    18
CTC2_L_00535017-01
1 52700U 26486GC  26070.40850694  .00000000  00000+0  00000-0 0  9990
2 52700  97.6000 192.0000 0000000   0.0000 256.0000 15.05490646    14
CTC2_L_00535017-02
1 52701U 24877LX  26070.40850694  .00000000  00000+0  00000-0 0  9993
2 52701  97.6000 192.0000 0000000   0.0000  16.0000 15.05490646    19
CTC2_L_00535017-03
1 52702U 23519TH  26070.40850694  .00000000  00000+0  00000-0 0  9996
2 52702  97.6000 192.0000 0000000   0.0000 136.0000 15.05490646    13
CTC2_L_00535018-01
1 52703U 22558IU  26070.40850694  .00000000  00000+0  00000-0 0  9999
2 52703  97.6000 204.0000 0000000   0.0000 272.0000 15.05490646    19
CTC2_L_00535018-02
1 52704U 23934JZ  26070.40850694  .00000000  00000+0  00000-0 0  9999
2 52704  97.6000 204.0000 0000000   0.0000  32.0000 15.05490646    14
CTC2_L_00535018-03
1 52705U 25298CF  26070.40850694  .00000000  00000+0  00000-0 0  9995
2 52705  97.6000 204.0000 0000000   0.0000 152.0000 15.05490646    18
CTC2_L_00535019-01
1 52706U 23166NC  26070.40850694  .00000000  00000+0  00000-0 0  9998
2 52706  97.6000 216.0000 0000000   0.0000 288.0000 15.05490646    12
CTC2_L_00535019-02
1 52707U 23356V   26070.40850694  .00000000  00000+0  00000-0 0  9990
2 52707  97.6000 216.0000 0000000   0.0000  48.0000 15.05490646    17
CTC2_L_00535019-03
1 52708U 26655NF  26070.40850694  .00000000  00000+0  00000-0 0  9996
2 52708  97.6000 216.0000 0000000   0.0000 168.0000 15.05490646    11
CTC2_L_00535020-01
1 52709U 23716PR  26070.40850694  .00000000  00000+0  00000-0 0  9992
2 52709  97.6000 228.0000 0000000   0.0000 304.0000 15.05490646    17
CTC2_L_00535020-02
1 52710U 22260KP  26070.40850694  .00000000  00000+0  00000-0 0  9997
2 52710  97.6000 228.0000 0000000   0.0000  64.0000 15.05490646    12
CTC2_L_00535020-03
1 52711U 24633YT  26070.40850694  .00000000  00000+0  00000-0 0  9994
2 52711  97.6000 228.0000 0000000   0.0000 184.0000 15.05490646    16
CTC2_L_00535021-01
1 52712U 26268VP  26070.40850694  .00000000  00000+0  00000-0 0  9991
2 52712  97.6000 240.0000 0000000   0.0000 320.0000 15.05490646    13
CTC2_L_00535021-02
1 52713U 23264IM  26070.40850694  .00000000  00000+0  00000-0 0  9995
2 52713  97.6000 240.0000 0000000   0.0000  80.0000 15.05490646    17
